[{"OBJECT_NAME":"SITRO-AIS 45","OBJECT_ID":"2024-199BF","EPOCH":"2026-03-09T22:32:19.627584","MEAN_MOTION":15.49904954,"ECCENTRICITY":0.0007189,"INCLINATION":97.3085,"RA_OF_ASC_NODE":302.9301,"ARG_OF_PERICENTER":301.0265,"MEAN_ANOMALY":59.028,"EPHEMERIS_TYPE":0,"CLASSIFICATION_TYPE":"U","NORAD_CAT_ID":61788,"ELEMENT_SET_NO":999,"REV_AT_EPOCH":11899,"BSTAR":0.00074855067,"MEAN_MOTION_DOT":0.00041916,"MEAN_MOTION_DDOT":0},{"OBJECT_NAME":"FLOCK 4G-16","OBJECT_ID":"2025-009AF","EPOCH":"2026-03-09T16:24:08.859168","MEAN_MOTION":15.48160181,"ECCENTRICITY":0.00015351,"INCLINATION":97.3918,"RA_OF_ASC_NODE":155.5159,"ARG_OF_PERICENTER":253.888,"MEAN_ANOMALY":106.2201,"EPHEMERIS_TYPE":0,"CLASSIFICATION_TYPE":"U","NORAD_CAT_ID":62638,"ELEMENT_SET_NO":999,"REV_AT_EPOCH":6403,"BSTAR":0.0012441051,"MEAN_MOTION_DOT":0.00065741,"MEAN_MOTION_DDOT":0}]
